{
  "type": "FeatureCollection",
  "features": [
    {
      "type": "Feature",
      "properties": {
        "norad_id": 30683,
        "name": "FENGYUN 1C DEB",
        "group": "fengyun-1c-debris",
        "lat": -31.51156851077617,
        "lon": 7.226237802503248,
        "alt_km": 934.5507033031972,
        "timestamp": "2025-12-15T19:00:45.634552+00:00",
        "meta_object_name": "FENGYUN 1C DEB",
        "meta_object_id": "1999-025AQR",
        "meta_epoch": "2025-12-14T13:03:58.218048",
        "meta_mean_motion": 14.00394385,
        "meta_eccentricity": 0.01382843,
        "meta_inclination": 99.4288,
        "meta_ra_of_asc_node": 0.0926,
        "meta_arg_of_pericenter": 219.6802,
        "meta_mean_anomaly": 299.8075,
        "meta_ephemeris_type": 0,
        "meta_classification_type": "U",
        "meta_norad_cat_id": 30683,
        "meta_element_set_no": 999,
        "meta_rev_at_epoch": 95576,
        "meta_bstar": 0.00127269,
        "meta_mean_motion_dot": 2.001e-05,
        "meta_mean_motion_ddot": 0,
        "tle_line1": "1 30683U 99025AQR 25348.54442382  .00002001  00000+0  12727-2 0  9992",
        "tle_line2": "2 30683  99.4288   0.0926 0138284 219.6802 299.8075 14.00394385955762"
      },
      "geometry": {
        "type": "Point",
        "coordinates": [
          7.226237802503248,
          -31.51156851077617
        ]
      }
    },
    {
      "type": "Feature",
      "properties": {
        "norad_id": 30684,
        "name": "FENGYUN 1C DEB",
        "group": "fengyun-1c-debris",
        "lat": 48.84331504906944,
        "lon": -137.78044245191555,
        "alt_km": 1118.742738207411,
        "timestamp": "2025-12-15T19:00:45.634565+00:00",
        "meta_object_name": "FENGYUN 1C DEB",
        "meta_object_id": "1999-025AQS",
        "meta_epoch": "2025-12-14T01:56:52.082304",
        "meta_mean_motion": 13.6680812,
        "meta_eccentricity": 0.02350447,
        "meta_inclination": 99.5314,
        "meta_ra_of_asc_node": 29.4517,
        "meta_arg_of_pericenter": 265.819,
        "meta_mean_anomaly": 91.6063,
        "meta_ephemeris_type": 0,
        "meta_classification_type": "U",
        "meta_norad_cat_id": 30684,
        "meta_element_set_no": 999,
        "meta_rev_at_epoch": 93647,
        "meta_bstar": 0.0012358252,
        "meta_mean_motion_dot": 1.2e-05,
        "meta_mean_motion_ddot": 0,
        "tle_line1": "1 30684U 99025AQS 25348.08115836  .00001200  00000+0  12358-2 0  9993",
        "tle_line2": "2 30684  99.5314  29.4517 0235044 265.8190  91.6063 13.66808120936470"
      },
      "geometry": {
        "type": "Point",
        "coordinates": [
          -137.78044245191555,
          48.84331504906944
        ]
      }
    },
    {
      "type": "Feature",
      "properties": {
        "norad_id": 30686,
        "name": "FENGYUN 1C DEB",
        "group": "fengyun-1c-debris",
        "lat": 10.151019033803921,
        "lon": 5.668441038663343,
        "alt_km": 596.1256918961972,
        "timestamp": "2025-12-15T19:00:45.634577+00:00",
        "meta_object_name": "FENGYUN 1C DEB",
        "meta_object_id": "1999-025AQU",
        "meta_epoch": "2025-12-14T19:31:02.779104",
        "meta_mean_motion": 14.73906617,
        "meta_eccentricity": 0.01441327,
        "meta_inclination": 99.0332,
        "meta_ra_of_asc_node": 182.9463,
        "meta_arg_of_pericenter": 114.1852,
        "meta_mean_anomaly": 262.5816,
        "meta_ephemeris_type": 0,
        "meta_classification_type": "U",
        "meta_norad_cat_id": 30686,
        "meta_element_set_no": 999,
        "meta_rev_at_epoch": 99632,
        "meta_bstar": 0.00060399616,
        "meta_mean_motion_dot": 4.612e-05,
        "meta_mean_motion_ddot": 0,
        "tle_line1": "1 30686U 99025AQU 25348.81322661  .00004612  00000+0  60400-3 0  9994",
        "tle_line2": "2 30686  99.0332 182.9463 0144132 114.1852 262.5816 14.73906617996324"
      },
      "geometry": {
        "type": "Point",
        "coordinates": [
          5.668441038663343,
          10.151019033803921
        ]
      }
    },
    {
      "type": "Feature",
      "properties": {
        "norad_id": 30688,
        "name": "FENGYUN 1C DEB",
        "group": "fengyun-1c-debris",
        "lat": 31.433683283238043,
        "lon": 57.80861236319348,
        "alt_km": 779.9479906318484,
        "timestamp": "2025-12-15T19:00:45.634590+00:00",
        "meta_object_name": "FENGYUN 1C DEB",
        "meta_object_id": "1999-025AQW",
        "meta_epoch": "2025-12-14T04:34:23.234880",
        "meta_mean_motion": 14.32715262,
        "meta_eccentricity": 0.00151955,
        "meta_inclination": 98.7014,
        "meta_ra_of_asc_node": 61.5719,
        "meta_arg_of_pericenter": 311.1078,
        "meta_mean_anomaly": 104.3802,
        "meta_ephemeris_type": 0,
        "meta_classification_type": "U",
        "meta_norad_cat_id": 30688,
        "meta_element_set_no": 999,
        "meta_rev_at_epoch": 97281,
        "meta_bstar": 0.0018818567,
        "meta_mean_motion_dot": 5.086e-05,
        "meta_mean_motion_ddot": 0,
        "tle_line1": "1 30688U 99025AQW 25348.19054670  .00005086  00000+0  18819-2 0  9991",
        "tle_line2": "2 30688  98.7014  61.5719 0015195 311.1078 104.3802 14.32715262972815"
      },
      "geometry": {
        "type": "Point",
        "coordinates": [
          57.80861236319348,
          31.433683283238043
        ]
      }
    },
    {
      "type": "Feature",
      "properties": {
        "norad_id": 30689,
        "name": "FENGYUN 1C DEB",
        "group": "fengyun-1c-debris",
        "lat": 21.455204754598608,
        "lon": 159.39149306916337,
        "alt_km": 816.2554682441732,
        "timestamp": "2025-12-15T19:00:45.634600+00:00",
        "meta_object_name": "FENGYUN 1C DEB",
        "meta_object_id": "1999-025AQX",
        "meta_epoch": "2025-12-14T22:09:01.468224",
        "meta_mean_motion": 14.11770045,
        "meta_eccentricity": 0.0111775,
        "meta_inclination": 98.7084,
        "meta_ra_of_asc_node": 335.0942,
        "meta_arg_of_pericenter": 97.1688,
        "meta_mean_anomaly": 324.4259,
        "meta_ephemeris_type": 0,
        "meta_classification_type": "U",
        "meta_norad_cat_id": 30689,
        "meta_element_set_no": 999,
        "meta_rev_at_epoch": 96921,
        "meta_bstar": 0.00039448381,
        "meta_mean_motion_dot": 7.21e-06,
        "meta_mean_motion_ddot": 0,
        "tle_line1": "1 30689U 99025AQX 25348.92293366  .00000721  00000+0  39448-3 0  9993",
        "tle_line2": "2 30689  98.7084 335.0942 0111775  97.1688 324.4259 14.11770045969217"
      },
      "geometry": {
        "type": "Point",
        "coordinates": [
          159.39149306916337,
          21.455204754598608
        ]
      }
    },
    {
      "type": "Feature",
      "properties": {
        "norad_id": 30690,
        "name": "FENGYUN 1C DEB",
        "group": "fengyun-1c-debris",
        "lat": 75.51001384326787,
        "lon": 138.83250360485223,
        "alt_km": 814.6877849641623,
        "timestamp": "2025-12-15T19:00:45.634610+00:00",
        "meta_object_name": "FENGYUN 1C DEB",
        "meta_object_id": "1999-025AQY",
        "meta_epoch": "2025-12-14T18:51:23.234112",
        "meta_mean_motion": 14.02334756,
        "meta_eccentricity": 0.0105051,
        "meta_inclination": 99.159,
        "meta_ra_of_asc_node": 279.1923,
        "meta_arg_of_pericenter": 70.4307,
        "meta_mean_anomaly": 351.6628,
        "meta_ephemeris_type": 0,
        "meta_classification_type": "U",
        "meta_norad_cat_id": 30690,
        "meta_element_set_no": 999,
        "meta_rev_at_epoch": 95736,
        "meta_bstar": 0.0013301063,
        "meta_mean_motion_dot": 2.098e-05,
        "meta_mean_motion_ddot": 0,
        "tle_line1": "1 30690U 99025AQY 25348.78568558  .00002098  00000+0  13301-2 0  9995",
        "tle_line2": "2 30690  99.1590 279.1923 0105051  70.4307 351.6628 14.02334756957365"
      },
      "geometry": {
        "type": "Point",
        "coordinates": [
          138.83250360485223,
          75.51001384326787
        ]
      }
    },
    {
      "type": "Feature",
      "properties": {
        "norad_id": 30691,
        "name": "FENGYUN 1C DEB",
        "group": "fengyun-1c-debris",
        "lat": -42.42633699568526,
        "lon": 9.102165794736502,
        "alt_km": 939.811920907242,
        "timestamp": "2025-12-15T19:00:45.634620+00:00",
        "meta_object_name": "FENGYUN 1C DEB",
        "meta_object_id": "1999-025AQZ",
        "meta_epoch": "2025-12-14T12:51:43.182144",
        "meta_mean_motion": 13.89439864,
        "meta_eccentricity": 0.01393618,
        "meta_inclination": 98.7435,
        "meta_ra_of_asc_node": 359.8364,
        "meta_arg_of_pericenter": 228.1752,
        "meta_mean_anomaly": 286.8185,
        "meta_ephemeris_type": 0,
        "meta_classification_type": "U",
        "meta_norad_cat_id": 30691,
        "meta_element_set_no": 999,
        "meta_rev_at_epoch": 95141,
        "meta_bstar": 0.0011081644,
        "meta_mean_motion_dot": 1.421e-05,
        "meta_mean_motion_ddot": 0,
        "tle_line1": "1 30691U 99025AQZ 25348.53591646  .00001421  00000+0  11082-2 0  9996",
        "tle_line2": "2 30691  98.7435 359.8364 0139361 228.1752 286.8185 13.89439864951418"
      },
      "geometry": {
        "type": "Point",
        "coordinates": [
          9.102165794736502,
          -42.42633699568526
        ]
      }
    }
  ]
}